{"type": "FeatureCollection", "name": "cementerio_general", "crs": {"type": "name", "properties": {"name": "urn:ogc:def:crs:OGC:1.3:CRS84"}}, "features": [{"type": "Feature", "properties": {"name": "Cementerio General de Santiago", "district": "Recoleta, Santiago, Chile", "founded": 1821, "lat": -33.41808, "lon": -70.6501863, "kind": "main_pedestrian_entrance", "address": "Av. La Paz frente Cementerio General (Monumento La Dolorosa)", "label": "Main pedestrian entrance (Av. La Paz frente Cementerio General (Monumento La Dolorosa))"}, "geometry": {"type": "Point", "coordinates": [-70.6501863, -33.41808]}}]}