{"type": "FeatureCollection", "name": "buffers", "crs": {"type": "name", "properties": {"name": "urn:ogc:def:crs:OGC:1.3:CRS84"}}, "features": [{"type": "Feature", "properties": {"ring_m": 500, "label": "500 m"}, "geometry": {"type": "Polygon", "coordinates": [[[-70.644811, -33.418151], [-70.644821, -33.418373], [-70.644845, -33.418593], [-70.644881, -33.418812], [-70.64493, -33.41903], [-70.644992, -33.419245], [-70.645067, -33.419457], [-70.645153, -33.419666], [-70.645252, -33.419871], [-70.645363, -33.420072], [-70.645485, -33.420268], [-70.645619, -33.420459], [-70.645764, -33.420644], [-70.645919, -33.420823], [-70.646085, -33.420995], [-70.64626, -33.42116], [-70.646445, -33.421318], [-70.646639, -33.421468], [-70.646842, -33.42161], [-70.647052, -33.421743], [-70.647271, -33.421868], [-70.647496, -33.421983], [-70.647727, -33.422089], [-70.647965, -33.422186], [-70.648208, -33.422272], [-70.648456, -33.422349], [-70.648707, -33.422415], [-70.648963, -33.42247], [-70.649221, -33.422515], [-70.649482, -33.42255], [-70.649744, -33.422573], [-70.650008, -33.422586], [-70.650272, -33.422588], [-70.650535, -33.422579], [-70.650798, -33.422559], [-70.651059, -33.422529], [-70.651319, -33.422487], [-70.651575, -33.422436], [-70.651828, -33.422373], [-70.652078, -33.4223], [-70.652322, -33.422217], [-70.652562, -33.422125], [-70.652796, -33.422022], [-70.653023, -33.42191], [-70.653244, -33.421788], [-70.653457, -33.421658], [-70.653663, -33.421519], [-70.65386, -33.421372], [-70.654048, -33.421217], [-70.654227, -33.421054], [-70.654396, -33.420884], [-70.654555, -33.420708], [-70.654704, -33.420525], [-70.654841, -33.420336], [-70.654968, -33.420142], [-70.655082, -33.419943], [-70.655186, -33.419739], [-70.655277, -33.419531], [-70.655355, -33.41932], [-70.655422, -33.419106], [-70.655475, -33.418889], [-70.655516, -33.418671], [-70.655544, -33.418451], [-70.65556, -33.41823], [-70.655562, -33.418008], [-70.655551, -33.417787], [-70.655528, -33.417567], [-70.655491, -33.417348], [-70.655442, -33.41713], [-70.65538, -33.416915], [-70.655306, -33.416703], [-70.655219, -33.416494], [-70.65512, -33.416289], [-70.655009, -33.416088], [-70.654887, -33.415892], [-70.654753, -33.415701], [-70.654608, -33.415516], [-70.654453, -33.415337], [-70.654288, -33.415165], [-70.654112, -33.415], [-70.653927, -33.414842], [-70.653733, -33.414692], [-70.653531, -33.41455], [-70.65332, -33.414416], [-70.653102, -33.414292], [-70.652877, -33.414177], [-70.652645, -33.414071], [-70.652407, -33.413974], [-70.652165, -33.413888], [-70.651917, -33.413811], [-70.651665, -33.413745], [-70.65141, -33.41369], [-70.651151, -33.413645], [-70.650891, -33.41361], [-70.650628, -33.413587], [-70.650365, -33.413574], [-70.650101, -33.413572], [-70.649837, -33.413581], [-70.649575, -33.413601], [-70.649313, -33.413631], [-70.649054, -33.413673], [-70.648797, -33.413724], [-70.648544, -33.413787], [-70.648295, -33.41386], [-70.64805, -33.413942], [-70.647811, -33.414035], [-70.647577, -33.414138], [-70.64735, -33.41425], [-70.647129, -33.414371], [-70.646916, -33.414502], [-70.64671, -33.414641], [-70.646513, -33.414788], [-70.646325, -33.414943], [-70.646146, -33.415106], [-70.645977, -33.415275], [-70.645818, -33.415452], [-70.645669, -33.415635], [-70.645532, -33.415824], [-70.645405, -33.416018], [-70.64529, -33.416217], [-70.645187, -33.416421], [-70.645096, -33.416629], [-70.645017, -33.41684], [-70.644951, -33.417054], [-70.644897, -33.417271], [-70.644856, -33.417489], [-70.644828, -33.417709], [-70.644813, -33.41793], [-70.644811, -33.418151]]]}}, {"type": "Feature", "properties": {"ring_m": 1000, "label": "1000 m"}, "geometry": {"type": "Polygon", "coordinates": [[[-70.639435, -33.418223], [-70.639456, -33.418665], [-70.639503, -33.419106], [-70.639576, -33.419544], [-70.639675, -33.419979], [-70.639798, -33.420409], [-70.639947, -33.420834], [-70.640121, -33.421252], [-70.640318, -33.421662], [-70.64054, -33.422064], [-70.640784, -33.422456], [-70.641052, -33.422838], [-70.641341, -33.423208], [-70.641652, -33.423565], [-70.641983, -33.42391], [-70.642334, -33.424241], [-70.642704, -33.424556], [-70.643092, -33.424856], [-70.643497, -33.42514], [-70.643918, -33.425407], [-70.644355, -33.425656], [-70.644805, -33.425887], [-70.645268, -33.426099], [-70.645743, -33.426291], [-70.646229, -33.426464], [-70.646725, -33.426617], [-70.647228, -33.426749], [-70.647739, -33.426861], [-70.648256, -33.426951], [-70.648777, -33.427019], [-70.649302, -33.427067], [-70.649829, -33.427092], [-70.650357, -33.427096], [-70.650884, -33.427078], [-70.65141, -33.427039], [-70.651933, -33.426977], [-70.652451, -33.426895], [-70.652964, -33.426791], [-70.653471, -33.426666], [-70.653969, -33.426521], [-70.654459, -33.426355], [-70.654938, -33.426169], [-70.655405, -33.425964], [-70.65586, -33.42574], [-70.656302, -33.425497], [-70.656728, -33.425236], [-70.657139, -33.424959], [-70.657533, -33.424664], [-70.65791, -33.424354], [-70.658268, -33.424029], [-70.658606, -33.423689], [-70.658924, -33.423336], [-70.659221, -33.42297], [-70.659496, -33.422592], [-70.659749, -33.422204], [-70.659979, -33.421805], [-70.660185, -33.421398], [-70.660367, -33.420982], [-70.660525, -33.42056], [-70.660657, -33.420131], [-70.660765, -33.419698], [-70.660846, -33.419261], [-70.660903, -33.418821], [-70.660933, -33.418379], [-70.660938, -33.417936], [-70.660916, -33.417494], [-70.660869, -33.417053], [-70.660796, -33.416615], [-70.660698, -33.41618], [-70.660574, -33.41575], [-70.660425, -33.415325], [-70.660251, -33.414908], [-70.660054, -33.414497], [-70.659832, -33.414095], [-70.659587, -33.413703], [-70.65932, -33.413322], [-70.65903, -33.412952], [-70.65872, -33.412594], [-70.658388, -33.412249], [-70.658037, -33.411919], [-70.657667, -33.411603], [-70.65728, -33.411303], [-70.656874, -33.41102], [-70.656453, -33.410753], [-70.656017, -33.410504], [-70.655567, -33.410273], [-70.655104, -33.410061], [-70.654628, -33.409868], [-70.654143, -33.409695], [-70.653647, -33.409543], [-70.653144, -33.409411], [-70.652633, -33.409299], [-70.652116, -33.409209], [-70.651595, -33.409141], [-70.65107, -33.409093], [-70.650543, -33.409068], [-70.650016, -33.409064], [-70.649488, -33.409082], [-70.648963, -33.409121], [-70.64844, -33.409183], [-70.647922, -33.409265], [-70.647409, -33.409369], [-70.646902, -33.409494], [-70.646404, -33.409639], [-70.645915, -33.409805], [-70.645436, -33.409991], [-70.644968, -33.410196], [-70.644513, -33.41042], [-70.644072, -33.410663], [-70.643645, -33.410923], [-70.643234, -33.411201], [-70.64284, -33.411495], [-70.642464, -33.411806], [-70.642106, -33.412131], [-70.641768, -33.412471], [-70.64145, -33.412824], [-70.641153, -33.41319], [-70.640877, -33.413567], [-70.640624, -33.413956], [-70.640395, -33.414354], [-70.640188, -33.414761], [-70.640006, -33.415177], [-70.639849, -33.415599], [-70.639716, -33.416028], [-70.639608, -33.416461], [-70.639526, -33.416898], [-70.63947, -33.417338], [-70.63944, -33.41778], [-70.639435, -33.418223]]]}}, {"type": "Feature", "properties": {"ring_m": 2000, "label": "2000 m"}, "geometry": {"type": "Polygon", "coordinates": [[[-70.628683, -33.418364], [-70.628726, -33.419249], [-70.62882, -33.42013], [-70.628966, -33.421007], [-70.629162, -33.421877], [-70.62941, -33.422737], [-70.629707, -33.423587], [-70.630054, -33.424423], [-70.630449, -33.425243], [-70.630892, -33.426047], [-70.631381, -33.426831], [-70.631916, -33.427594], [-70.632495, -33.428335], [-70.633116, -33.42905], [-70.633779, -33.42974], [-70.634481, -33.430401], [-70.635221, -33.431032], [-70.635997, -33.431632], [-70.636807, -33.4322], [-70.637649, -33.432733], [-70.638522, -33.433232], [-70.639422, -33.433693], [-70.640349, -33.434117], [-70.641299, -33.434503], [-70.642271, -33.434849], [-70.643262, -33.435154], [-70.64427, -33.435419], [-70.645292, -33.435641], [-70.646325, -33.435821], [-70.647368, -33.435959], [-70.648418, -33.436053], [-70.649472, -33.436104], [-70.650528, -33.436112], [-70.651583, -33.436076], [-70.652634, -33.435997], [-70.65368, -33.435875], [-70.654717, -33.43571], [-70.655743, -33.435502], [-70.656756, -33.435252], [-70.657753, -33.434961], [-70.658732, -33.43463], [-70.65969, -33.434258], [-70.660625, -33.433847], [-70.661536, -33.433399], [-70.662418, -33.432913], [-70.663272, -33.432392], [-70.664093, -33.431837], [-70.664882, -33.431248], [-70.665634, -33.430627], [-70.66635, -33.429976], [-70.667027, -33.429297], [-70.667663, -33.428591], [-70.668257, -33.427859], [-70.668807, -33.427103], [-70.669313, -33.426326], [-70.669772, -33.425529], [-70.670184, -33.424715], [-70.670548, -33.423884], [-70.670863, -33.423039], [-70.671128, -33.422182], [-70.671343, -33.421315], [-70.671507, -33.420441], [-70.671619, -33.419561], [-70.67168, -33.418677], [-70.671689, -33.417792], [-70.671646, -33.416908], [-70.671551, -33.416026], [-70.671405, -33.415149], [-70.671208, -33.41428], [-70.670961, -33.413419], [-70.670663, -33.41257], [-70.670316, -33.411734], [-70.66992, -33.410914], [-70.669477, -33.41011], [-70.668987, -33.409326], [-70.668452, -33.408563], [-70.667874, -33.407823], [-70.667252, -33.407107], [-70.666589, -33.406418], [-70.665887, -33.405757], [-70.665148, -33.405126], [-70.664372, -33.404526], [-70.663562, -33.403959], [-70.662719, -33.403426], [-70.661847, -33.402927], [-70.660946, -33.402466], [-70.66002, -33.402042], [-70.65907, -33.401657], [-70.658098, -33.401311], [-70.657108, -33.401005], [-70.656101, -33.400741], [-70.655079, -33.400519], [-70.654046, -33.400339], [-70.653003, -33.400201], [-70.651954, -33.400107], [-70.650901, -33.400056], [-70.649845, -33.400048], [-70.648791, -33.400084], [-70.64774, -33.400163], [-70.646695, -33.400285], [-70.645658, -33.40045], [-70.644632, -33.400658], [-70.643619, -33.400907], [-70.642623, -33.401198], [-70.641644, -33.40153], [-70.640686, -33.401901], [-70.639751, -33.402312], [-70.638841, -33.40276], [-70.637958, -33.403245], [-70.637105, -33.403766], [-70.636284, -33.404322], [-70.635495, -33.40491], [-70.634743, -33.405531], [-70.634027, -33.406181], [-70.63335, -33.406861], [-70.632714, -33.407567], [-70.63212, -33.408298], [-70.631569, -33.409054], [-70.631064, -33.409831], [-70.630604, -33.410627], [-70.630191, -33.411442], [-70.629827, -33.412273], [-70.629512, -33.413118], [-70.629246, -33.413974], [-70.629031, -33.414841], [-70.628867, -33.415715], [-70.628754, -33.416595], [-70.628693, -33.417479], [-70.628683, -33.418364]]]}}, {"type": "Feature", "properties": {"ring_m": 5000, "label": "5000 m"}, "geometry": {"type": "Polygon", "coordinates": [[[-70.596429, -33.418784], [-70.596534, -33.420995], [-70.596768, -33.423199], [-70.597132, -33.425391], [-70.597623, -33.427565], [-70.59824, -33.429717], [-70.598983, -33.43184], [-70.59985, -33.433931], [-70.600837, -33.435983], [-70.601944, -33.437992], [-70.603167, -33.439953], [-70.604503, -33.441861], [-70.60595, -33.443712], [-70.607503, -33.445502], [-70.609159, -33.447225], [-70.610914, -33.448878], [-70.612764, -33.450457], [-70.614704, -33.451958], [-70.616729, -33.453377], [-70.618835, -33.454711], [-70.621017, -33.455957], [-70.62327, -33.457112], [-70.625587, -33.458172], [-70.627963, -33.459136], [-70.630393, -33.460001], [-70.632871, -33.460765], [-70.635391, -33.461426], [-70.637946, -33.461982], [-70.640531, -33.462433], [-70.643139, -33.462777], [-70.645764, -33.463013], [-70.6484, -33.463141], [-70.65104, -33.46316], [-70.653678, -33.46307], [-70.656308, -33.462873], [-70.658923, -33.462567], [-70.661516, -33.462154], [-70.664083, -33.461634], [-70.666616, -33.46101], [-70.669109, -33.460282], [-70.671557, -33.459453], [-70.673953, -33.458523], [-70.676291, -33.457497], [-70.678567, -33.456375], [-70.680774, -33.455161], [-70.682908, -33.453858], [-70.684962, -33.452468], [-70.686933, -33.450996], [-70.688815, -33.449444], [-70.690604, -33.447817], [-70.692295, -33.446118], [-70.693885, -33.444352], [-70.69537, -33.442522], [-70.696745, -33.440633], [-70.698009, -33.43869], [-70.699157, -33.436698], [-70.700187, -33.43466], [-70.701096, -33.432583], [-70.701883, -33.430471], [-70.702545, -33.428328], [-70.703081, -33.426162], [-70.70349, -33.423976], [-70.70377, -33.421775], [-70.703921, -33.419566], [-70.703942, -33.417353], [-70.703834, -33.415142], [-70.703597, -33.412938], [-70.703231, -33.410747], [-70.702738, -33.408573], [-70.702117, -33.406422], [-70.701372, -33.404299], [-70.700504, -33.40221], [-70.699514, -33.400158], [-70.698406, -33.39815], [-70.697181, -33.39619], [-70.695844, -33.394283], [-70.694396, -33.392433], [-70.692843, -33.390644], [-70.691186, -33.388922], [-70.689431, -33.38727], [-70.687581, -33.385693], [-70.685641, -33.384193], [-70.683617, -33.382775], [-70.681511, -33.381442], [-70.67933, -33.380197], [-70.677079, -33.379043], [-70.674764, -33.377984], [-70.672389, -33.37702], [-70.669961, -33.376156], [-70.667485, -33.375393], [-70.664968, -33.374733], [-70.662415, -33.374177], [-70.659833, -33.373726], [-70.657227, -33.373383], [-70.654605, -33.373147], [-70.651972, -33.373019], [-70.649334, -33.373], [-70.646699, -33.373089], [-70.644072, -33.373287], [-70.64146, -33.373592], [-70.638869, -33.374005], [-70.636304, -33.374524], [-70.633774, -33.375147], [-70.631283, -33.375874], [-70.628837, -33.376703], [-70.626443, -33.377631], [-70.624105, -33.378657], [-70.621831, -33.379777], [-70.619625, -33.38099], [-70.617492, -33.382293], [-70.615438, -33.383681], [-70.613467, -33.385152], [-70.611585, -33.386703], [-70.609796, -33.388329], [-70.608104, -33.390027], [-70.606513, -33.391792], [-70.605028, -33.393621], [-70.603651, -33.395509], [-70.602386, -33.397451], [-70.601236, -33.399442], [-70.600204, -33.401479], [-70.599293, -33.403556], [-70.598504, -33.405667], [-70.597839, -33.407809], [-70.5973, -33.409975], [-70.596889, -33.412161], [-70.596607, -33.414362], [-70.596453, -33.416571], [-70.596429, -33.418784]]]}}, {"type": "Feature", "properties": {"ring_m": 10000, "label": "10000 m"}, "geometry": {"type": "Polygon", "coordinates": [[[-70.542669, -33.419464], [-70.542877, -33.423887], [-70.543343, -33.428295], [-70.544067, -33.432679], [-70.545047, -33.437029], [-70.54628, -33.441332], [-70.547763, -33.44558], [-70.549494, -33.449761], [-70.551468, -33.453866], [-70.553679, -33.457885], [-70.556124, -33.461808], [-70.558795, -33.465626], [-70.561687, -33.46933], [-70.564792, -33.472909], [-70.568104, -33.476357], [-70.571614, -33.479664], [-70.575313, -33.482823], [-70.579194, -33.485826], [-70.583245, -33.488665], [-70.587459, -33.491335], [-70.591823, -33.493828], [-70.596329, -33.496138], [-70.600965, -33.49826], [-70.60572, -33.500188], [-70.610582, -33.501919], [-70.61554, -33.503447], [-70.620581, -33.50477], [-70.625694, -33.505884], [-70.630867, -33.506785], [-70.636086, -33.507473], [-70.641339, -33.507946], [-70.646613, -33.508201], [-70.651896, -33.508239], [-70.657175, -33.50806], [-70.662437, -33.507664], [-70.667669, -33.507052], [-70.672859, -33.506225], [-70.677994, -33.505186], [-70.683062, -33.503937], [-70.688051, -33.50248], [-70.692948, -33.500821], [-70.697742, -33.498961], [-70.702421, -33.496907], [-70.706973, -33.494663], [-70.711389, -33.492234], [-70.715657, -33.489626], [-70.719766, -33.486846], [-70.723708, -33.4839], [-70.727472, -33.480795], [-70.731049, -33.47754], [-70.734431, -33.474141], [-70.73761, -33.470607], [-70.740578, -33.466946], [-70.743328, -33.463168], [-70.745853, -33.459281], [-70.748147, -33.455295], [-70.750205, -33.45122], [-70.752022, -33.447064], [-70.753593, -33.442839], [-70.754915, -33.438554], [-70.755985, -33.434221], [-70.756799, -33.429848], [-70.757356, -33.425447], [-70.757656, -33.421028], [-70.757696, -33.416603], [-70.757477, -33.412181], [-70.757, -33.407773], [-70.756266, -33.403391], [-70.755276, -33.399044], [-70.754034, -33.394743], [-70.752541, -33.390498], [-70.750802, -33.386319], [-70.748821, -33.382217], [-70.746603, -33.378202], [-70.744152, -33.374283], [-70.741476, -33.370469], [-70.73858, -33.36677], [-70.735472, -33.363195], [-70.732158, -33.359752], [-70.728647, -33.356449], [-70.724948, -33.353294], [-70.721069, -33.350296], [-70.71702, -33.347461], [-70.71281, -33.344796], [-70.70845, -33.342307], [-70.703949, -33.340001], [-70.699319, -33.337883], [-70.694572, -33.335957], [-70.689717, -33.33423], [-70.684768, -33.332704], [-70.679736, -33.331384], [-70.674632, -33.330272], [-70.66947, -33.329372], [-70.664262, -33.328685], [-70.65902, -33.328213], [-70.653756, -33.327958], [-70.648484, -33.327919], [-70.643216, -33.328098], [-70.637965, -33.328493], [-70.632743, -33.329103], [-70.627563, -33.329928], [-70.622437, -33.330965], [-70.617378, -33.332211], [-70.612398, -33.333665], [-70.607508, -33.335321], [-70.602721, -33.337177], [-70.598048, -33.339227], [-70.593501, -33.341468], [-70.589089, -33.343892], [-70.584824, -33.346496], [-70.580717, -33.349271], [-70.576776, -33.352213], [-70.573012, -33.355313], [-70.569433, -33.358564], [-70.566049, -33.361958], [-70.562866, -33.365488], [-70.559894, -33.369145], [-70.557139, -33.372919], [-70.554608, -33.376802], [-70.552306, -33.380785], [-70.55024, -33.384857], [-70.548415, -33.38901], [-70.546835, -33.393233], [-70.545503, -33.397516], [-70.544424, -33.401848], [-70.543599, -33.40622], [-70.54303, -33.41062], [-70.54272, -33.415038], [-70.542669, -33.419464]]]}}]}